<?xml version="1.0" encoding="UTF-8"?>
<kml xmlns="http://www.opengis.net/kml/2.2" xmlns:gx="http://www.google.com/kml/ext/2.2" xmlns:kml="http://www.opengis.net/kml/2.2" xmlns:atom="http://www.w3.org/2005/Atom">
<Document>
	<name>dts.kml</name>
	<StyleMap id="msn_ylw-pushpin">
		<Pair>
			<key>normal</key>
			<styleUrl>#sn_ylw-pushpin</styleUrl>
		</Pair>
		<Pair>
			<key>highlight</key>
			<styleUrl>#sh_ylw-pushpin</styleUrl>
		</Pair>
	</StyleMap>
	<Style id="sh_ylw-pushpin">
		<IconStyle>
			<scale>1.3</scale>
			<Icon>
				<href>http://maps.google.com/mapfiles/kml/pushpin/ylw-pushpin.png</href>
			</Icon>
			<hotSpot x="20" y="2" xunits="pixels" yunits="pixels"/>
		</IconStyle>
		<BalloonStyle>
		</BalloonStyle>
		<LineStyle>
			<color>00ffffff</color>
		</LineStyle>
		<PolyStyle>
			<color>00ffffff</color>
		</PolyStyle>
	</Style>
	<Style id="sn_ylw-pushpin">
		<IconStyle>
			<scale>1.1</scale>
			<Icon>
				<href>http://maps.google.com/mapfiles/kml/pushpin/ylw-pushpin.png</href>
			</Icon>
			<hotSpot x="20" y="2" xunits="pixels" yunits="pixels"/>
		</IconStyle>
		<BalloonStyle>
		</BalloonStyle>
		<LineStyle>
			<color>00ffffff</color>
		</LineStyle>
		<PolyStyle>
			<color>00ffffff</color>
		</PolyStyle>
	</Style>
	<Placemark>
		<name>dts</name>
		<styleUrl>#msn_ylw-pushpin</styleUrl>
		<Polygon>
			<tessellate>1</tessellate>
			<outerBoundaryIs>
				<LinearRing>
					<coordinates>
						84.90623021463423,22.25480003220469,0 84.90623918125199,22.25480268181943,0 84.90624815630458,22.25480533401014,0 84.90625247301732,22.25480897056189,0 84.906263265327,22.25481216099296,0 84.90627226830013,22.25481482245793,0 84.90627947676317,22.25481695347471,0 84.90628563273673,22.25482114128505,0 84.90629472113538,22.25482376018451,0 84.90630210803377,22.25482575982628,0 84.90630949856426,22.25482776046709,0 84.90631689311449,22.25482976212616,0 84.90632507898975,22.25483435217258,0 84.90633248574086,22.2548363578284,0 84.9063398963844,22.25483836450809,0 84.90634916504895,22.25484087430315,0 84.90635843985839,22.25484338577574,0 84.90636853566379,22.25484849999329,0 84.90637678988945,22.25485311967005,0 84.90637947282167,22.25485623338477,0 84.90638878323986,22.25485875680949,0 84.9063980996162,22.25486128183574,0 84.9064074222069,22.25486380858033,0 84.90641488452472,22.25486583114902,0 84.90642336735142,22.25486573980171,0 84.90643386552297,22.25486142655863,0 84.90643889693717,22.25485091077476,0 84.90644285467859,22.2548425861407,0 84.90644670603167,22.25483438553019,0 84.90644870800311,22.25482570462466,0 84.90645348571098,22.25481554226382,0 84.90645546481612,22.25480693936612,0 84.90646020426739,22.25479686903657,0 84.90646493637838,22.25478683301662,0 84.90646873834638,22.25477880799899,0 84.90647346938349,22.25476882175791,0 84.906478176749,22.25475888532712,0 84.90648286083558,22.25474899836776,0 84.90648566004994,22.25474308973465,0 84.90649030704462,22.25473328099691,0 84.9064985632094,22.2547201226938,0 84.90650130106668,22.25471431649061,0 84.90650855415785,22.25470322611353,0 84.90651398470717,22.25469171531627,0 84.90652029924367,22.25468262259861,0 84.90652926934207,22.25466788442331,0 84.90653639279195,22.25465279538335,0 84.90654346110428,22.25463782327649,0 84.9065487264739,22.25462667009051,0 84.90655221986911,22.25461927046834,0 84.90655743367891,22.25460822532272,0 84.90656261691548,22.25459724409237,0 84.90656433810784,22.25459359772189,0 84.90656862648471,22.25458451230714,0 84.9065728944794,22.25457547009882,0 84.90657798937487,22.25456467610881,0 84.90658052595859,22.25455930219784,0 84.90658216285932,22.25455171477377,0 84.9065863624963,22.25454282736005,0 84.90658881616395,22.25453353911042,0 84.90659125793694,22.25452429552756,0 84.90659288009036,22.25451682756593,0 84.90658939983661,22.25451200410277,0 84.90658421427294,22.25450675225186,0 84.90657649144902,22.25450281478033,0 84.90656964809833,22.25450106055492,0 84.90656194410697,22.25449713135653,0 84.90655766617915,22.25449408292074,0 84.90654913211677,22.25449189647253,0 84.9065406030231,22.25448971127773,0 84.90653378327474,22.25448796407107,0 84.90652696683325,22.25448621766194,0 84.90652015348013,22.2544844720605,0 84.90650907118147,22.25448358156723,0 84.90650051780389,22.25448529208879,0 84.90648942407454,22.25448440100368,0 84.90648003004418,22.25448394644204,0 84.90647152007679,22.25448176329422,0 84.90646302331368,22.25447957573819,0 84.90645384456477,22.25447514877696,0 84.90644970342234,22.25447208241454,0 84.90645411098845,22.25446354487449,0 84.90645595486934,22.25445629516422,0 84.90645779186195,22.25444907319108,0 84.90646215408589,22.25444064001151,0 84.90646565658994,22.25443390311361,0 84.90646748866727,22.2544267507741,0 84.90647098816741,22.25442005177675,0 84.90647454297765,22.25440962560949,0 84.90647634593971,22.25440256642185,0 84.90647900593116,22.25439388560322,0 84.90647993157067,22.25438852853581,0 84.9064842883427,22.25437664645153,0 84.90648694954442,22.25436806384899,0 84.90648623261538,22.2543623501708,0 84.90648968600891,22.25435585517334,0 84.90649067406758,22.25434695865518,0 84.90649244285554,22.25434012078269,0 84.90649505528496,22.25433171157054,0 84.90649844833221,22.25432533709616,0 84.90650182871073,22.25431898602043,0 84.90651018411788,22.25430675604575,0 84.9065135249033,22.25430047334438,0 84.90651685350903,22.25429421342182,0 84.90652424255276,22.25428721900244,0 84.90652995720413,22.25428335571355,0 84.90653891048863,22.25427680606986,0 84.90654944112843,22.25427068036373,0 84.90655348701175,22.25426992926234,0 84.90656081597334,22.25426993839811,0 84.90656731899631,22.25427149789218,0 84.90657625951786,22.25427539146942,0 84.90658521258257,22.25427929041885,0 84.90659091769687,22.25428241249575,0 84.9065949985153,22.25428514697425,0 84.90660315687373,22.25428710488228,0 84.90661131849404,22.25428906354451,0 84.90661784999561,22.25429063108824,0 84.90662685474683,22.25429455044422,0 84.90663423617517,22.25429808261577,0 84.90664000132566,22.25430121920484,0 84.90664413379916,22.25430396697494,0 84.90665234669925,22.25430592195655,0 84.90665891907348,22.2543074864648,0 84.90666549341071,22.25430905139355,0 84.9066720695042,22.25431061674917,0 84.90668019838066,22.25430902214355,0 84.90668831404145,22.25430743013802,0 84.90669477554157,22.25430545044741,0 84.9067036277041,22.25430229232812,0 84.90671081978807,22.25429875333442,0 84.90671874522548,22.25429366085336,0 84.90672501034692,22.25428819935902,0 84.90673125271891,22.25428275771464,0 84.90673985464093,22.25427616347381,0 84.90674769249536,22.25427113305758,0 84.90675403723863,22.25426919809598,0 84.90676110041078,22.2542657292756,0 84.90677138594606,22.25426303186483,0 84.90678326474981,22.25426072181862,0 84.90679582436667,22.25425689078372,0 84.90680208819055,22.25425498019283,0 84.90681230160213,22.2542522879064,0 84.90681927399376,22.25424883904086,0 84.90683339586468,22.25424536782466,0 84.90683501431641,22.25424573872251,0 84.90684286412014,22.25424419259002,0 84.90685299796939,22.25424150836712,0 84.90686175261891,22.25424184812383,0 84.90686794876163,22.2542399373554,0 84.90687414340744,22.25423802277648,0 84.90688355281836,22.25423684620471,0 84.90688839206148,22.25423794833609,0 84.90689778160056,22.25423677279721,0 84.90690554428896,22.25423523265311,0 84.90691586098539,22.25423592974578,0 84.9069219891618,22.25423402598728,0 84.9069290698924,22.2542339905088,0 84.90693839254467,22.25423282241406,0 84.90694672814121,22.25422979582695,0 84.90695664442984,22.25422714197808,0 84.906963683416,22.2542271094561,0 84.90697133833109,22.25422558765489,0 84.90697898606177,22.2542240630999,0 84.90698673983067,22.25422243677292,0 84.90699548176541,22.25422264546616,0 84.90700482656423,22.25422136318914,0 84.90701030171121,22.25422089288044,0 84.90701962525434,22.25421960520794,0 84.90702734243419,22.2542179527973,0 84.90703545219243,22.25421962117981,0 84.90704842218533,22.25422228940751,0 84.90705328416838,22.25422328958143,0 84.9070597652716,22.25422462292254,0 84.90706624465119,22.2542259558726,0 84.90707375554777,22.25422911839196,0 84.9070802343654,22.25423045104839,0 84.90708833048132,22.25423211631185,0 84.90709527344113,22.25423678254953,0 84.90710118010801,22.25423961832202,0 84.90711090100241,22.25424161681686,0 84.90711899877891,22.25424328164405,0 84.90712547505737,22.25424461309601,0 84.90713306320842,22.25424293436106,0 84.90713957184225,22.25423942723515,0 84.90714605969733,22.25423593125339,0 84.90716054961956,22.25422933953136,0 84.90717387066623,22.25422099142255,0 84.90718182538599,22.25421791049186,0 84.90719026700307,22.25421338127191,0 84.90719708474111,22.25420854184431,0 84.9072049484389,22.25420551114373,0 84.9072117130379,22.25420070443988,0 84.90721795088713,22.25419736235354,0 84.90722416999228,22.25419403034009,0 84.90723292434424,22.2541881662816,0 84.90723704112879,22.25418596182473,0 84.90724428180683,22.25418442626122,0 84.90725245924962,22.25418005007732,0 84.90726167276922,22.25417746865805,0 84.90726929843748,22.25417456843957,0 84.90727554198992,22.25417587352005,0 84.90728223522116,22.25417577766514,0 84.90728892106912,22.25417568188524,0 84.90729515482141,22.25417698528709,0 84.9073033862596,22.2541772145485,0 84.90731316411915,22.25417776900206,0 84.90731783140228,22.25417874512433,0 84.90732447546175,22.25417866371778,0 84.90733223717683,22.25418030777104,0 84.90733844035816,22.25418163184797,0 84.90734506695188,22.2541815531881,0 84.90735323461234,22.25418180717449,0 84.90735787797374,22.2541828048398,0 84.90736294067912,22.2541823932564,0 84.90737067461079,22.25418405496764,0 84.90737881970738,22.25418430735666,0 84.90738500245422,22.25418563591862,0 84.90739272997399,22.25418729638121,0 84.9073993138133,22.25418721503266,0 84.90740549161188,22.25418854258669,0 84.90741515218262,22.2541891239754,0 84.90742132554043,22.25419045066058,0 84.90742904130141,22.25419210879179,0 84.90743868295262,22.25419268794248,0 84.90744330907286,22.25419368217242,0 84.9074494766551,22.25419500770576,0 84.90745756044819,22.25419525372845,0 84.90746717580103,22.25419583048804,0 84.90747370278784,22.25419574502303,0 84.90748329950181,22.25419632093168,0 84.90749134874326,22.25419656575922,0 84.90749749292992,22.25419790657463,0 84.90750398718752,22.25419785173206,0 84.90751319430834,22.25419988380044,0 84.90752119999514,22.254200232979,0 84.90752732959716,22.25420162536341,0 84.90753346019223,22.25420301799348,0 84.90754265797908,22.25420510735178,0 84.90755185801785,22.25420719720008,0 84.90755799265501,22.25420859071976,0 84.90756380436746,22.2542113812587,0 84.90756808646286,22.2542138257487,0 84.90757576481457,22.25421557023845,0 84.90758312868041,22.25421871655954,0 84.90758896258022,22.25422151673028,0 84.90759480242752,22.25422431976854,0 84.90760064815193,22.25422712566128,0 84.90760649985343,22.25422993436805,0 84.90761389883161,22.25423309630913,0 84.90761946159328,22.25423732525901,0 84.90762687828078,22.25424049573219,0 84.90763091593244,22.25424438636204,0 84.9076368030583,22.25424721344787,0 84.90764424340966,22.2542503954189,0 84.90765237388312,22.25425821717121,0 84.90765673778407,22.25426070650085,0 84.90766237288813,22.25426498576021,0 84.90766773383687,22.25427069057831,0 84.90767438242398,22.25427817384636,0 84.90768161013676,22.25428277920521,0 84.90768701535511,22.2542885050201,0 84.90769298179555,22.25429132947691,0 84.90769868241443,22.25429561568492,0 84.90770412397082,22.25430137308784,0 84.90771244587758,22.25430930209633,0 84.90771792201444,22.25431509492321,0 84.90772367412154,22.25431942429632,0 84.90772917685705,22.2543252430417,0 84.90773678129685,22.25432845042724,0 84.90774231084734,22.25433429117485,0 84.90774810693208,22.25433865431402,0 84.90775391314328,22.25434302505078,0 84.90775972948455,22.25434740347687,0 84.9077671364289,22.25435213607009,0 84.90777590208681,22.25435875086523,0 84.90778310685957,22.25436503639748,0 84.90779327285856,22.25437355994768,0 84.90779439671272,22.25437695942922,0 84.90780188493238,22.25438176447271,0 84.9078075680558,22.25438776213225,0 84.90781349094583,22.25439223711726,0 84.90781760630672,22.25439791149189,0 84.90782333151323,22.25440395291707,0 84.90782747153186,22.25440965869078,0 84.90783621635653,22.25441799601245,0 84.90784059536091,22.25442215748363,0 84.90784476974419,22.25442789019992,0 84.90785056215596,22.25443398404105,0 84.90785476095199,22.25443974796631,0 84.90785876524043,22.25444711061642,0 84.90786319270812,22.25445132237985,0 84.90786722295276,22.25445872582942,0 84.90787308720741,22.254464904903,0 84.9078771482005,22.25447235644273,0 84.90788304431942,22.25447857337016,0 84.90788752549346,22.25448284371164,0 84.9078918220614,22.2544887391499,0 84.90789756898511,22.25449662472026,0 84.9079018928346,22.25450255770521,0 84.90790604163692,22.25451014242319,0 84.90791039096788,22.25451611285172,0 84.9079163913519,22.25452245165351,0 84.90792387100255,22.25453081544151,0 84.90792808800406,22.25453850417774,0 84.90793249646757,22.2545445545881,0 84.90793856671354,22.25455097579253,0 84.90794283041069,22.25455873739151,0 84.90794727965303,22.25456484377546,0 84.90795323123511,22.25457301199076,0 84.90795754404398,22.25458085429466,0 84.90796337380631,22.25459078755271,0 84.90796804597286,22.25459527399367,0 84.90797240865295,22.25460319821431,0 84.90797846007912,22.25461151064128,0 84.90798118324938,22.25461913615366,0 84.90798422574112,22.25462331904042,0 84.9079884951424,22.25463309051322,0 84.90799140312272,22.25463904774322,0 84.90799401853188,22.25464853240285,0 84.90799679612869,22.25465629757574,0 84.90799774130524,22.25466550185012,0 84.90800038958464,22.25467511392304,0 84.90800164442162,22.25468083050411,0 84.90800417109602,22.25469232960422,0 84.90800682413787,22.25470199429916,0 84.90800929062597,22.25471337592632,0 84.90800898046534,22.25471696264461,0 84.90801006549204,22.25472449043559,0 84.90800928861982,22.25473352056502,0 84.90800850825592,22.25474259324881,0 84.90800975552321,22.25474839214516,0 84.90800913003571,22.25475570160072,0 84.90800991282062,22.25476705351121,0 84.90801101327479,22.2547747687474,0 84.90801196148962,22.25478436875721,0 84.90801149148498,22.25478994796794,0 84.90801244436554,22.25479961947434,0 84.90801355831063,22.25480745671287,0 84.90801452001624,22.25481720978065,0 84.90801723649729,22.25482734707091,0 84.90802171949898,22.25483786979699,0 84.90802286068136,22.2548458478918,0 84.90802737518294,22.25485645645853,0 84.90803220949607,22.2548632521647,0 84.90803689609761,22.25487196269547,0 84.9080417373797,22.2548787401601,0 84.90804644171409,22.25488746665898,0 84.9080513097535,22.2548942843948,0 84.90805589982362,22.25490501119636,0 84.90805858643486,22.25491740613096,0 84.90806350361416,22.25492431364416,0 84.90806473079166,22.25493255888672,0 84.9080659626019,22.25494083527457,0 84.90806527025001,22.2549508100149,0 84.90806636965834,22.25496116515265,0 84.90806581416118,22.2549692190607,0 84.90806705868192,22.25497763672223,0 84.90806816929285,22.25498812067084,0 84.90806747467926,22.25499832203825,0 84.90806663651108,22.25501062992994,0 84.90806551136001,22.25502715363828,0 84.90806480359885,22.25503754741741,0 84.90806228757788,22.25504774667787,0 84.90805990238638,22.25505589071536,0 84.90805921021153,22.25506654192422,0 84.90805666696475,22.25507690941146,0 84.90805610390554,22.25508551378195,0 84.90805519952127,22.25509830363896,0 84.90805256872622,22.25510864307639,0 84.90805008015398,22.25511687968853,0 84.90804930151432,22.25512767596071,0 84.90804647941312,22.25514033923186,0 84.9080455286332,22.25515344368743,0 84.90804473198959,22.25516442434527,0 84.90804219459571,22.25517288362332,0 84.90804122362211,22.25518618638693,0 84.90804008341486,22.25520180832902,0 84.90803721076963,22.25521502067859,0 84.90803660756022,22.25522427815344,0 84.90803407500633,22.25523319898626,0 84.90803151655363,22.25524210327245,0 84.90802878049982,22.25525335853051,0 84.9080240848306,22.25526428530561,0 84.90801969656253,22.25527055787415,0 84.90801707690262,22.2552796058678,0 84.90801248889258,22.25528830195574,0 84.90800575269014,22.25529906854188,0 84.90800309139634,22.25530828122284,0 84.90799845283057,22.25531716821521,0 84.90799397547414,22.25532367614199,0 84.90798713695773,22.25533469585927,0 84.90798044973501,22.25534333627293,0 84.90797570908417,22.25535235375845,0 84.9079709195998,22.25536127912278,0 84.90796411086205,22.25536985445629,0 84.90795906364009,22.25538131088954,0 84.90795223042873,22.25539016423,0 84.90794960643137,22.25539735733836,0 84.90794272854545,22.25540631717337,0 84.90793581753343,22.25541532003684,0 84.90792865487407,22.25542693722031,0 84.90792144929705,22.2554386241573,0 84.90791465672585,22.25544518355985,0 84.90790556092927,22.25545396473502,0 84.90790075812264,22.25546097785382,0 84.90789183063045,22.25546719929471,0 84.90788467995753,22.25547648581583,0 84.90787568405753,22.25548276297312,0 84.90787078838758,22.25548988482954,0 84.90786147011487,22.25549887259611,0 84.90785471889795,22.25550297152129,0 84.90784795056807,22.25550708071033,0 84.90784088879407,22.25551388316907,0 84.9078317047715,22.25552020894589,0 84.9078224796732,22.25552649006474,0 84.90781561229969,22.2555305400081,0 84.90780692794135,22.25553143604993,0 84.9077976230441,22.25553774574639,0 84.90778828425299,22.25554407807951,0 84.90778102099314,22.25555088784775,0 84.90777194038367,22.25555453384217,0 84.90776462881,22.25556142809032,0 84.90775695932379,22.25557111957421,0 84.90774992474795,22.25557529281771,0 84.9077404042022,22.25558180250802,0 84.9077308483983,22.25558833639667,0 84.90772125711612,22.25559489458598,0 84.90771199186059,22.25559866235678,0 84.90770483859291,22.25560275588976,0 84.90769766692216,22.25560682172245,0 84.90768580449938,22.25561269163176,0 84.90767605287603,22.25561907516495,0 84.9076666609089,22.25562268447936,0 84.90765940427904,22.2556268226231,0 84.90764997206834,22.25563049108951,0 84.9076379448933,22.25563649654709,0 84.90763062488551,22.25564067439331,0 84.90762069689768,22.25564720344375,0 84.90761116376248,22.25565091744128,0 84.90760160804301,22.25565464017216,0 84.90759203146042,22.25565828028015,0 84.90758288262016,22.25565900865679,0 84.90757109341293,22.25566202052418,0 84.90755927936023,22.25566503864071,0 84.90755180626377,22.25566910091907,0 84.9075426034709,22.2556698374386,0 84.90753243605268,22.25567621183755,0 84.90752223493597,22.25568260738703,0 84.90751468437395,22.25568670873933,0 84.90750492200782,22.25569029695412,0 84.90749463592685,22.25569674055863,0 84.90748484791426,22.25570000908847,0 84.90747504508244,22.25570324325209,0 84.90746521334971,22.25570662738214,0 84.90745535739485,22.25571008374758,0 84.90744548165617,22.25571354713455,0 84.90743612911845,22.25571410701522,0 84.90742567056692,22.25572049477428,0 84.90741629124261,22.25572105848169,0 84.90740690444514,22.25572162283595,0 84.90739694215607,22.25572511102539,0 84.90738475063009,22.25572800220582,0 84.9073747491538,22.25573148189479,0 84.9073625133026,22.25573438005084,0 84.90735247010927,22.2557378727298,0 84.90734139340208,22.25573492894846,0 84.90732909305746,22.2557379204406,0 84.90731735992469,22.25573815673911,0 84.90731291082933,22.25573708253319,0 84.90730337834793,22.25573793248251,0 84.90729447741211,22.25573578288427,0 84.90728270473863,22.25573609476459,0 84.90727314670158,22.25573694496241,0 84.90726135061867,22.25573725792115,0 84.90725466769757,22.25573564330135,0 84.90724508516229,22.25573649408983,0 84.9072310334751,22.25573626837594,0 84.90722434604636,22.25573465227821,0 84.90721027814568,22.25573442538458,0 84.90720511915399,22.25573635545133,0 84.9071932582635,22.25573666876806,0 84.90718138488681,22.25573698249113,0 84.9071746872646,22.25573536288146,0 84.9071635266109,22.2557326644231,0 84.90715088108084,22.25573606629854,0 84.9071418705304,22.25573422470631,0 84.90713209352521,22.25573547182208,0 84.90712004455382,22.25573626451775,0 84.90711101329484,22.25573443950385,0 84.90710345819626,22.25573614512176,0 84.9070944185781,22.25573431860485,0 84.90708311727589,22.25573203520097,0 84.90707407473771,22.25573020822408,0 84.90706276966021,22.25572792397547,0 84.90704919924003,22.25572518765415,0 84.90703788430316,22.25572292122154,0 84.90702965419787,22.2557180658092,0 84.90702060516057,22.25571625265512,0 84.90700702891577,22.25571353274505,0 84.90699797616011,22.25571171903419,0 84.90698750888059,22.25570641814374,0 84.90697617162937,22.25570422822777,0 84.9069678980654,22.25569964849973,0 84.90695418173736,22.25569736124206,0 84.90693812252003,22.25569482635275,0 84.90692662785419,22.2556930560892,0 84.90691742646978,22.25569163917227,0 84.90690915180376,22.25568711397738,0 84.9068999468261,22.2556856955614,0 84.90688843332515,22.25568392141858,0 84.90687691196028,22.25568214589591,0 84.90686634459378,22.25567726665832,0 84.90685250872673,22.25567513331113,0 84.90684097003451,22.25567335397806,0 84.90682942323568,22.25567157363473,0 84.90681886407268,22.25566669429115,0 84.90680831234084,22.25566181822587,0 84.90679781097388,22.25565684193219,0 84.90679421907835,22.25565300301704,0 84.90678042709617,22.25565070459631,0 84.90677224887861,22.2556461037104,0 84.9067640782711,22.25564150712651,0 84.9067546493275,22.25563347692952,0 84.90674775942684,22.25563232642373,0 84.90674065186934,22.2556246971421,0 84.90673251622262,22.25562012183102,0 84.90672085291128,22.2556117515839,0 84.90671273848406,22.255607188942,0 84.90670217581119,22.25559582974845,0 84.90669408757071,22.25559128432598,0 84.90668479221634,22.25558335787204,0 84.90667672423639,22.25557882509628,0 84.90666626195599,22.25556755614828,0 84.90665821978763,22.2555630402998,0 84.9066501848816,22.2555585288022,0 84.90664443769175,22.25555440543982,0 84.90663408792493,22.25554961186593,0 84.90662724255887,22.25554203879129,0 84.9066204134138,22.25553448374228,0 84.9066125706312,22.25552973373813,0 84.90660246638214,22.25552459995792,0 84.90659569588536,22.25551705958143,0 84.906588941544,22.25550953728485,0 84.90658220331272,22.25550203296751,0 84.90657548132498,22.25549454655843,0 84.90656765467037,22.25548994670155,0 84.90656096167413,22.255482487591,0 84.90655428460424,22.25547504654007,0 84.90654650655715,22.25546438165895,0 84.90654091381725,22.2554542935354,0 84.90653315361688,22.25544375820448,0 84.90652542071656,22.25543325974958,0 84.90652100734751,22.25542644174721,0 84.90651549533521,22.25541648486659,0 84.90651217550354,22.2554070425764,0 84.90650886726878,22.25539763320044,0 84.90650340515033,22.25538777846743,0 84.90649799678171,22.25537790463117,0 84.90649371027257,22.2553711402909,0 84.90648731822833,22.255358141347,0 84.90648520742006,22.25535190531793,0 84.90647671608832,22.25533851966416,0 84.90647034572316,22.25533137232436,0 84.90646509073959,22.25532163850722,0 84.90645880693195,22.2553144571945,0 84.90645154046086,22.25530419306623,0 84.90644640258641,22.25529447452849,0 84.90643918544072,22.25528428476302,0 84.906435087468,22.25527768130723,0 84.90642681449663,22.25527008350319,0 84.90642384155072,22.25526099076627,0 84.90641769386833,22.25525394052135,0 84.90641156143916,22.25524690786595,0 84.90640544410365,22.25523989249516,0 84.90639934201556,22.25523289462437,0 84.90639436416728,22.25522342936242,0 84.90639147402393,22.25521449681254,0 84.90638648395452,22.25520515355624,0 84.90638463890566,22.25519393908325,0 84.9063817144893,22.25518519370537,0 84.90637988760919,22.25517406866707,0 84.9063769827531,22.25516539172562,0 84.90637408790276,22.25515674433867,0 84.90637120281689,22.2551481264042,0 84.90636941288179,22.25513716584465,0 84.90636858515288,22.25512909849756,0 84.90636572564833,22.25512057530899,0 84.90636394061347,22.25510975616017,0 84.90635902670627,22.25510087121824,0 84.9063530843588,22.25509429810084,0 84.90634314833832,22.25508674231207,0 84.9063401917401,22.25508346977229,0 84.90632921458763,22.25507823196654,0 84.90632114063709,22.25507631925834,0 84.9063130679491,22.2550744067991,0 84.9063020704553,22.25506923141937,0 84.90628998672108,22.2550663516476,0 84.90628308932618,22.25506209043244,0 84.90627308712379,22.25505963361008,0 84.90626508747785,22.25505766880628,0 84.9062550908545,22.25505521339143,0 84.90624596657497,22.25505553758841,0 84.90623597027434,22.25505308190184,0 84.90622797556533,22.25505111782828,0 84.9062179847657,22.25504866347026,0 84.90620799691163,22.25504620988676,0 84.90620200584512,22.25504473808901,0 84.90619045660819,22.25503664591175,0 84.90617595166364,22.25503019758309,0 84.90616934408551,22.25502579755984,0 84.90615291964724,22.25501886276373,0 84.90614309719028,22.25501632225816,0 84.90613849083654,22.25501244937758,0 84.90613125773459,22.2550052268873,0 84.90612795789912,22.254999035695,0 84.90612595341706,22.2549905357551,0 84.90612590551302,22.25498257115421,0 84.90613230338418,22.25497103214317,0 84.90613866341353,22.25495956114039,0 84.90614565823419,22.25495093040661,0 84.90615262087516,22.25494233947223,0 84.90615955120568,22.2549337881266,0 84.90616644964111,22.25492527619734,0 84.90617439145623,22.25491470400226,0 84.90618089055896,22.25490656332691,0 84.90619119887631,22.25488721636302,0 84.90619688347564,22.2548765474079,0 84.90620258426229,22.25486589563112,0 84.90620968839438,22.25485293346531,0 84.90621674447191,22.25484005902555,0 84.90622142196612,22.25483152437781,0 84.90622723941331,22.25482091008544,0 84.90623052863867,22.2548072350119,0 84.90623021463423,22.25480003220469,0 
					</coordinates>
				</LinearRing>
			</outerBoundaryIs>
		</Polygon>
		<atom:link rel="app" href="https://www.google.com/earth/about/versions/#earth-pro" title="Google Earth Pro 7.3.6.10441"></atom:link>
	</Placemark>
</Document>
</kml>
