<?xml version='1.0' encoding='utf-8'?>
<kml xmlns="http://www.opengis.net/kml/2.2"><Document><name>Example Waypoints</name><Style id="waypointsStyle"><IconStyle><scale>0.8</scale><Icon><href>http://maps.google.com/mapfiles/kml/paddle/red-circle.png</href></Icon></IconStyle><LineStyle><color>ff0000ff</color><width>2.0</width></LineStyle></Style><Placemark><name>Example Waypoints - Path</name><styleUrl>#waypointsStyle</styleUrl><LineString><tessellate>1</tessellate><coordinates>84.907887989113,22.254483479856,0 84.907887989113,22.254813049318,0 84.907887989113,22.255142618781,0 84.907887989113,22.255472188243,0 84.907707808932,22.255601056082,0 84.907707808932,22.255277013079,0 84.907707808932,22.254952970077,0 84.907707808932,22.254628927075,0 84.907707808932,22.254304884073,0 84.907527628752,22.254201693320,0 84.907527628752,22.254497199807,0 84.907527628752,22.254792706294,0 84.907527628752,22.255088212781,0 84.907527628752,22.255383719268,0 84.907527628752,22.255679225755,0 84.907347448572,22.255736538190,0 84.907347448572,22.255425556002,0 84.907347448572,22.255114573813,0 84.907347448572,22.254803591625,0 84.907347448572,22.254492609437,0 84.907347448572,22.254181627248,0 84.907167268392,22.254225128973,0 84.907167268392,22.254526817003,0 84.907167268392,22.254828505033,0 84.907167268392,22.255130193063,0 84.907167268392,22.255431881093,0 84.907167268392,22.255733569123,0 84.906987088212,22.255706336887,0 84.906987088212,22.255409558527,0 84.906987088212,22.255112780168,0 84.906987088212,22.254816001809,0 84.906987088212,22.254519223449,0 84.906987088212,22.254222445090,0 84.906806908032,22.254253709668,0 84.906806908032,22.254605570442,0 84.906806908032,22.254957431216,0 84.906806908032,22.255309291990,0 84.906806908032,22.255661152764,0 84.906626727851,22.255541469373,0 84.906626727851,22.255229725833,0 84.906626727851,22.254917982293,0 84.906626727851,22.254606238753,0 84.906626727851,22.254294495212,0 84.906536637761,22.254564608968,0 84.906446547671,22.254834722724,0 84.906446547671,22.255064735844,0 84.906446547671,22.255294748963,0 84.906266367491,22.255057983192,0 84.906266367491,22.254813078057,0</coordinates></LineString></Placemark><Placemark><name>WP 1</name><styleUrl>#waypointsStyle</styleUrl><Point><coordinates>84.907887989113,22.254483479856,0</coordinates></Point></Placemark><Placemark><name>WP 2</name><styleUrl>#waypointsStyle</styleUrl><Point><coordinates>84.907887989113,22.254813049318,0</coordinates></Point></Placemark><Placemark><name>WP 3</name><styleUrl>#waypointsStyle</styleUrl><Point><coordinates>84.907887989113,22.255142618781,0</coordinates></Point></Placemark><Placemark><name>WP 4</name><styleUrl>#waypointsStyle</styleUrl><Point><coordinates>84.907887989113,22.255472188243,0</coordinates></Point></Placemark><Placemark><name>WP 5</name><styleUrl>#waypointsStyle</styleUrl><Point><coordinates>84.907707808932,22.255601056082,0</coordinates></Point></Placemark><Placemark><name>WP 6</name><styleUrl>#waypointsStyle</styleUrl><Point><coordinates>84.907707808932,22.255277013079,0</coordinates></Point></Placemark><Placemark><name>WP 7</name><styleUrl>#waypointsStyle</styleUrl><Point><coordinates>84.907707808932,22.254952970077,0</coordinates></Point></Placemark><Placemark><name>WP 8</name><styleUrl>#waypointsStyle</styleUrl><Point><coordinates>84.907707808932,22.254628927075,0</coordinates></Point></Placemark><Placemark><name>WP 9</name><styleUrl>#waypointsStyle</styleUrl><Point><coordinates>84.907707808932,22.254304884073,0</coordinates></Point></Placemark><Placemark><name>WP 10</name><styleUrl>#waypointsStyle</styleUrl><Point><coordinates>84.907527628752,22.254201693320,0</coordinates></Point></Placemark><Placemark><name>WP 11</name><styleUrl>#waypointsStyle</styleUrl><Point><coordinates>84.907527628752,22.254497199807,0</coordinates></Point></Placemark><Placemark><name>WP 12</name><styleUrl>#waypointsStyle</styleUrl><Point><coordinates>84.907527628752,22.254792706294,0</coordinates></Point></Placemark><Placemark><name>WP 13</name><styleUrl>#waypointsStyle</styleUrl><Point><coordinates>84.907527628752,22.255088212781,0</coordinates></Point></Placemark><Placemark><name>WP 14</name><styleUrl>#waypointsStyle</styleUrl><Point><coordinates>84.907527628752,22.255383719268,0</coordinates></Point></Placemark><Placemark><name>WP 15</name><styleUrl>#waypointsStyle</styleUrl><Point><coordinates>84.907527628752,22.255679225755,0</coordinates></Point></Placemark><Placemark><name>WP 16</name><styleUrl>#waypointsStyle</styleUrl><Point><coordinates>84.907347448572,22.255736538190,0</coordinates></Point></Placemark><Placemark><name>WP 17</name><styleUrl>#waypointsStyle</styleUrl><Point><coordinates>84.907347448572,22.255425556002,0</coordinates></Point></Placemark><Placemark><name>WP 18</name><styleUrl>#waypointsStyle</styleUrl><Point><coordinates>84.907347448572,22.255114573813,0</coordinates></Point></Placemark><Placemark><name>WP 19</name><styleUrl>#waypointsStyle</styleUrl><Point><coordinates>84.907347448572,22.254803591625,0</coordinates></Point></Placemark><Placemark><name>WP 20</name><styleUrl>#waypointsStyle</styleUrl><Point><coordinates>84.907347448572,22.254492609437,0</coordinates></Point></Placemark><Placemark><name>WP 21</name><styleUrl>#waypointsStyle</styleUrl><Point><coordinates>84.907347448572,22.254181627248,0</coordinates></Point></Placemark><Placemark><name>WP 22</name><styleUrl>#waypointsStyle</styleUrl><Point><coordinates>84.907167268392,22.254225128973,0</coordinates></Point></Placemark><Placemark><name>WP 23</name><styleUrl>#waypointsStyle</styleUrl><Point><coordinates>84.907167268392,22.254526817003,0</coordinates></Point></Placemark><Placemark><name>WP 24</name><styleUrl>#waypointsStyle</styleUrl><Point><coordinates>84.907167268392,22.254828505033,0</coordinates></Point></Placemark><Placemark><name>WP 25</name><styleUrl>#waypointsStyle</styleUrl><Point><coordinates>84.907167268392,22.255130193063,0</coordinates></Point></Placemark><Placemark><name>WP 26</name><styleUrl>#waypointsStyle</styleUrl><Point><coordinates>84.907167268392,22.255431881093,0</coordinates></Point></Placemark><Placemark><name>WP 27</name><styleUrl>#waypointsStyle</styleUrl><Point><coordinates>84.907167268392,22.255733569123,0</coordinates></Point></Placemark><Placemark><name>WP 28</name><styleUrl>#waypointsStyle</styleUrl><Point><coordinates>84.906987088212,22.255706336887,0</coordinates></Point></Placemark><Placemark><name>WP 29</name><styleUrl>#waypointsStyle</styleUrl><Point><coordinates>84.906987088212,22.255409558527,0</coordinates></Point></Placemark><Placemark><name>WP 30</name><styleUrl>#waypointsStyle</styleUrl><Point><coordinates>84.906987088212,22.255112780168,0</coordinates></Point></Placemark><Placemark><name>WP 31</name><styleUrl>#waypointsStyle</styleUrl><Point><coordinates>84.906987088212,22.254816001809,0</coordinates></Point></Placemark><Placemark><name>WP 32</name><styleUrl>#waypointsStyle</styleUrl><Point><coordinates>84.906987088212,22.254519223449,0</coordinates></Point></Placemark><Placemark><name>WP 33</name><styleUrl>#waypointsStyle</styleUrl><Point><coordinates>84.906987088212,22.254222445090,0</coordinates></Point></Placemark><Placemark><name>WP 34</name><styleUrl>#waypointsStyle</styleUrl><Point><coordinates>84.906806908032,22.254253709668,0</coordinates></Point></Placemark><Placemark><name>WP 35</name><styleUrl>#waypointsStyle</styleUrl><Point><coordinates>84.906806908032,22.254605570442,0</coordinates></Point></Placemark><Placemark><name>WP 36</name><styleUrl>#waypointsStyle</styleUrl><Point><coordinates>84.906806908032,22.254957431216,0</coordinates></Point></Placemark><Placemark><name>WP 37</name><styleUrl>#waypointsStyle</styleUrl><Point><coordinates>84.906806908032,22.255309291990,0</coordinates></Point></Placemark><Placemark><name>WP 38</name><styleUrl>#waypointsStyle</styleUrl><Point><coordinates>84.906806908032,22.255661152764,0</coordinates></Point></Placemark><Placemark><name>WP 39</name><styleUrl>#waypointsStyle</styleUrl><Point><coordinates>84.906626727851,22.255541469373,0</coordinates></Point></Placemark><Placemark><name>WP 40</name><styleUrl>#waypointsStyle</styleUrl><Point><coordinates>84.906626727851,22.255229725833,0</coordinates></Point></Placemark><Placemark><name>WP 41</name><styleUrl>#waypointsStyle</styleUrl><Point><coordinates>84.906626727851,22.254917982293,0</coordinates></Point></Placemark><Placemark><name>WP 42</name><styleUrl>#waypointsStyle</styleUrl><Point><coordinates>84.906626727851,22.254606238753,0</coordinates></Point></Placemark><Placemark><name>WP 43</name><styleUrl>#waypointsStyle</styleUrl><Point><coordinates>84.906626727851,22.254294495212,0</coordinates></Point></Placemark><Placemark><name>WP 44</name><styleUrl>#waypointsStyle</styleUrl><Point><coordinates>84.906536637761,22.254564608968,0</coordinates></Point></Placemark><Placemark><name>WP 45</name><styleUrl>#waypointsStyle</styleUrl><Point><coordinates>84.906446547671,22.254834722724,0</coordinates></Point></Placemark><Placemark><name>WP 46</name><styleUrl>#waypointsStyle</styleUrl><Point><coordinates>84.906446547671,22.255064735844,0</coordinates></Point></Placemark><Placemark><name>WP 47</name><styleUrl>#waypointsStyle</styleUrl><Point><coordinates>84.906446547671,22.255294748963,0</coordinates></Point></Placemark><Placemark><name>WP 48</name><styleUrl>#waypointsStyle</styleUrl><Point><coordinates>84.906266367491,22.255057983192,0</coordinates></Point></Placemark><Placemark><name>WP 49</name><styleUrl>#waypointsStyle</styleUrl><Point><coordinates>84.906266367491,22.254813078057,0</coordinates></Point></Placemark></Document></kml>